{
  "norad_id": 43539,
  "name": "BEIDOU-2 IGSO-7",
  "history": [
    {
      "epoch": "2026-03-27T15:08:38.812992",
      "apogee_km": 36214.60873266908,
      "perigee_km": 35356.38566725522,
      "latitude_deg": -52.03617052242866,
      "longitude_deg": -61.523541119880974,
      "semi_major_axis_km": 42163.63419996216,
      "eccentricity": 0.01017729,
      "inclination_deg": 55.1838,
      "raan_deg": 163.7722,
      "arg_perigee_deg": 237.2605,
      "mean_anomaly_deg": 124.1194,
      "mean_motion_rev_day": 1.00275701
    }
  ]
}